[{"OBJECT_NAME":"STARLINK-1559","OBJECT_ID":"2020-055BC","EPOCH":"2026-03-09T05:36:23.522976","MEAN_MOTION":15.29461733,"ECCENTRICITY":0.0004229,"INCLINATION":53.0254,"RA_OF_ASC_NODE":76.0659,"ARG_OF_PERICENTER":33.971,"MEAN_ANOMALY":326.1559,"EPHEMERIS_TYPE":0,"CLASSIFICATION_TYPE":"U","NORAD_CAT_ID":46077,"ELEMENT_SET_NO":999,"REV_AT_EPOCH":30951,"BSTAR":0.0014778793,"MEAN_MOTION_DOT":0.00042685,"MEAN_MOTION_DDOT":0},{"OBJECT_NAME":"STARLINK-31968","OBJECT_ID":"2024-106F","EPOCH":"2026-03-09T22:27:55.725696","MEAN_MOTION":15.27564726,"ECCENTRICITY":0.00011388,"INCLINATION":43.0006,"RA_OF_ASC_NODE":330.8642,"ARG_OF_PERICENTER":259.8093,"MEAN_ANOMALY":100.263,"EPHEMERIS_TYPE":0,"CLASSIFICATION_TYPE":"U","NORAD_CAT_ID":59927,"ELEMENT_SET_NO":999,"REV_AT_EPOCH":10061,"BSTAR":-2.2937229e-5,"MEAN_MOTION_DOT":-8.93e-6,"MEAN_MOTION_DDOT":0}]
